STARLINK-1769_new
1 16382C 20062BL  21326.09306577 -.00012834  00000-0 -86009-3 0  3264
2 16382  53.0521 173.3350 0002047  79.7079 135.1219 15.06402574    12
STARLINK-1769_old
1 26382C 20062BL  21325.16770546  .00005297  00000-0  35483-3 0  3254
2 26382  53.0517 177.4894 0002064  79.3411 154.4299 15.06398381    12
